ONEWEB-0706             
1 61611U 24188T   26015.57355905  .00000353  00000+0  97477-3 0  9998
2 61611  87.8775  66.6893 0001793 120.5928 239.5377 13.10375981 63399
ONEWEB-0707             
1 61612U 24188U   26015.58020392  .00000687  00000+0  19314-2 0  9992
2 61612  87.8786  66.6692 0001701 118.6767 241.4532 13.10374251 63335
ONEWEB-0708             
1 61613U 24188V   26015.59846057  .00000384  00000+0  10646-2 0  9991
2 61613  87.8774  66.6976 0002377 108.6642 251.4744 13.10370629 63318
